{"fetched_at":"2026-04-08T17:04:03Z","count":12288,"tles":[{"name":"STARLINK-36347","line1":"1 68521U 26068P   26097.24411569 -.00547803  10548-3 -15575-2 0  9995","line2":"2 68521  53.1610   6.2410 0000541 334.4728  25.6273 15.92542727  1183","category":"Starlink"}]}