{
  "norad_id": 68521,
  "name": "STARLINK-36347",
  "history": [
    {
      "epoch": "2026-04-07T05:51:31.594752Z",
      "apogee_km": 295.53114827674744,
      "perigee_km": 294.809096446108,
      "latitude_deg": 5.499021955575387e-06,
      "longitude_deg": 82.83556115629659,
      "height_km": 295.76860042289246,
      "semi_major_axis_km": 6673.307122361427,
      "eccentricity": 5.41e-05,
      "inclination_deg": 53.161,
      "raan_deg": 6.241,
      "arg_perigee_deg": 334.4728,
      "mean_anomaly_deg": 25.6273,
      "mean_motion_rev_day": 15.92542727
    }
  ]
}